start=new Date('2022-07-10T00:00:00.000Z').valueOf();
sats=[{"OBJECT_ID":"2022-045AB","SITE":"AFETR","OBJECT_TYPE":"PAYLOAD","TIME_SYSTEM":"UTC","OBJECT_NAME":"STARLINK-3801","MEAN_ELEMENT_THEORY":"SGP4","ECCENTRICITY":"0.00015520","MEAN_MOTION_DDOT":"0.0000000000000","RCS_SIZE":"LARGE","TLE_LINE1":"1 52356U 22045AB  22190.83334491 -.00724517  00000-0 -28364-1 0  9995","FILE":"3510681","MEAN_ANOMALY":"270.8674","COUNTRY_CODE":"US","MEAN_MOTION":"15.27637419","NORAD_CAT_ID":"52356","ELEMENT_SET_NO":"999","RA_OF_ASC_NODE":"90.2187","BSTAR":"-0.02836400000000","DECAY_DATE":null,"LAUNCH_DATE":"2022-04-29","SEMIMAJOR_AXIS":"6861.014","MEAN_MOTION_DOT":"-0.00724517","CLASSIFICATION_TYPE":"U","TLE_LINE2":"2 52356  53.2176  90.2187 0001552  46.6900 270.8674 15.27637419  1305","INCLINATION":"53.2176","EPOCH":"2022-07-09T20:00:01.000224","EPHEMERIS_TYPE":"0","PERIOD":"94.263","ARG_OF_PERICENTER":"46.6900","GP_ID":"207786956","PERIAPSIS":"481.814","REV_AT_EPOCH":"130","CENTER_NAME":"EARTH","REF_FRAME":"TEME","APOAPSIS":"483.944"},{"CLASSIFICATION_TYPE":"U","MEAN_MOTION_DOT":"-0.00722934","SEMIMAJOR_AXIS":"6859.188","LAUNCH_DATE":"2022-04-29","DECAY_DATE":null,"BSTAR":"-0.02777200000000","RA_OF_ASC_NODE":"90.2918","APOAPSIS":"482.241","REF_FRAME":"TEME","REV_AT_EPOCH":"130","CENTER_NAME":"EARTH","PERIAPSIS":"479.866","GP_ID":"207786755","ARG_OF_PERICENTER":"43.6498","PERIOD":"94.226","EPHEMERIS_TYPE":"0","TLE_LINE2":"2 52357  53.2175  90.2918 0001731  43.6498 211.5972 15.28247394  1308","INCLINATION":"53.2175","EPOCH":"2022-07-09T20:00:01.000224","ECCENTRICITY":"0.00017310","MEAN_ELEMENT_THEORY":"SGP4","OBJECT_NAME":"STARLINK-3821","OBJECT_TYPE":"PAYLOAD","TIME_SYSTEM":"UTC","SITE":"AFETR","OBJECT_ID":"2022-045AC","ELEMENT_SET_NO":"999","NORAD_CAT_ID":"52357","MEAN_MOTION":"15.28247394","COUNTRY_CODE":"US","FILE":"3510681","MEAN_ANOMALY":"211.5972","TLE_LINE1":"1 52357U 22045AC  22190.83334491 -.00722934  00000-0 -27772-1 0  9999","MEAN_MOTION_DDOT":"0.0000000000000","RCS_SIZE":"LARGE"},{"LAUNCH_DATE":"2022-04-29","SEMIMAJOR_AXIS":"6856.233","CLASSIFICATION_TYPE":"U","MEAN_MOTION_DOT":"-0.00716302","RA_OF_ASC_NODE":"90.3188","DECAY_DATE":null,"BSTAR":"-0.02700500000000","CENTER_NAME":"EARTH","REV_AT_EPOCH":"130","PERIAPSIS":"477.011","REF_FRAME":"TEME","APOAPSIS":"479.185","EPHEMERIS_TYPE":"0","PERIOD":"94.165","EPOCH":"2022-07-09T20:00:01.000224","TLE_LINE2":"2 52358  53.2176  90.3188 0001586  45.4671 263.5259 15.29235637  1304","INCLINATION":"53.2176","GP_ID":"207786856","ARG_OF_PERICENTER":"45.4671","MEAN_ELEMENT_THEORY":"SGP4","ECCENTRICITY":"0.00015860","SITE":"AFETR","OBJECT_ID":"2022-045AD","OBJECT_NAME":"STARLINK-3837","TIME_SYSTEM":"UTC","OBJECT_TYPE":"PAYLOAD","NORAD_CAT_ID":"52358","ELEMENT_SET_NO":"999","TLE_LINE1":"1 52358U 22045AD  22190.83334491 -.00716302  00000-0 -27005-1 0  9991","RCS_SIZE":"LARGE","MEAN_MOTION_DDOT":"0.0000000000000","COUNTRY_CODE":"US","MEAN_MOTION":"15.29235637","MEAN_ANOMALY":"263.5259","FILE":"3510681"},{"GP_ID":"207786655","ARG_OF_PERICENTER":"43.0611","PERIOD":"94.214","EPHEMERIS_TYPE":"0","TLE_LINE2":"2 52359  53.2175  90.2970 0001725  43.0611 223.2638 15.28441872  1308","INCLINATION":"53.2175","EPOCH":"2022-07-09T20:00:01.000224","APOAPSIS":"481.655","REF_FRAME":"TEME","REV_AT_EPOCH":"130","CENTER_NAME":"EARTH","PERIAPSIS":"479.288","DECAY_DATE":null,"BSTAR":"-0.02761700000000","RA_OF_ASC_NODE":"90.2970","CLASSIFICATION_TYPE":"U","MEAN_MOTION_DOT":"-0.00723194","SEMIMAJOR_AXIS":"6858.607","LAUNCH_DATE":"2022-04-29","MEAN_MOTION":"15.28441872","COUNTRY_CODE":"US","FILE":"3510681","MEAN_ANOMALY":"223.2638","TLE_LINE1":"1 52359U 22045AE  22190.83334491 -.00723194  00000-0 -27617-1 0  9998","MEAN_MOTION_DDOT":"0.0000000000000","RCS_SIZE":"LARGE","ELEMENT_SET_NO":"999","NORAD_CAT_ID":"52359","OBJECT_NAME":"STARLINK-3853","OBJECT_TYPE":"PAYLOAD","TIME_SYSTEM":"UTC","OBJECT_ID":"2022-045AE","SITE":"AFETR","ECCENTRICITY":"0.00017250","MEAN_ELEMENT_THEORY":"SGP4"},{"NORAD_CAT_ID":"52360","ELEMENT_SET_NO":"999","MEAN_MOTION_DDOT":"0.0000000000000","RCS_SIZE":"LARGE","TLE_LINE1":"1 52360U 22045AF  22190.83334491 -.01047978  00000-0 -11381-1 0  9991","FILE":"3510681","MEAN_ANOMALY":"153.3492","MEAN_MOTION":"15.65619819","COUNTRY_CODE":"US","MEAN_ELEMENT_THEORY":"SGP4","ECCENTRICITY":"0.00014860","OBJECT_ID":"2022-045AF","SITE":"AFETR","OBJECT_TYPE":"PAYLOAD","TIME_SYSTEM":"UTC","OBJECT_NAME":"STARLINK-3824","PERIAPSIS":"370.456","REV_AT_EPOCH":"130","CENTER_NAME":"EARTH","APOAPSIS":"372.462","REF_FRAME":"TEME","TLE_LINE2":"2 52360  53.2174  85.1939 0001486  49.3653 153.3492 15.65619819  1306","INCLINATION":"53.2174","EPOCH":"2022-07-09T20:00:01.000224","PERIOD":"91.976","EPHEMERIS_TYPE":"0","ARG_OF_PERICENTER":"49.3653","GP_ID":"207787320","LAUNCH_DATE":"2022-04-29","SEMIMAJOR_AXIS":"6749.594","MEAN_MOTION_DOT":"-0.01047978","CLASSIFICATION_TYPE":"U","RA_OF_ASC_NODE":"85.1939","BSTAR":"-0.01138100000000","DECAY_DATE":null},{"OBJECT_ID":"2022-045AG","SITE":"AFETR","OBJECT_TYPE":"PAYLOAD","TIME_SYSTEM":"UTC","OBJECT_NAME":"STARLINK-3728","MEAN_ELEMENT_THEORY":"SGP4","ECCENTRICITY":"0.00016150","MEAN_MOTION_DDOT":"0.0000000000000","RCS_SIZE":"LARGE","TLE_LINE1":"1 52361U 22045AG  22190.83334491 -.00715520  00000-0 -27306-1 0  9990","FILE":"3510681","MEAN_ANOMALY":"241.8922","COUNTRY_CODE":"US","MEAN_MOTION":"15.28838706","NORAD_CAT_ID":"52361","ELEMENT_SET_NO":"999","RA_OF_ASC_NODE":"90.3081","BSTAR":"-0.02730600000000","DECAY_DATE":null,"LAUNCH_DATE":"2022-04-29","SEMIMAJOR_AXIS":"6857.420","MEAN_MOTION_DOT":"-0.00715520","CLASSIFICATION_TYPE":"U","TLE_LINE2":"2 52361  53.2175  90.3081 0001615  45.9517 241.8922 15.28838706  1307","INCLINATION":"53.2175","EPOCH":"2022-07-09T20:00:01.000224","EPHEMERIS_TYPE":"0","PERIOD":"94.189","ARG_OF_PERICENTER":"45.9517","GP_ID":"207787118","PERIAPSIS":"478.177","REV_AT_EPOCH":"130","CENTER_NAME":"EARTH","APOAPSIS":"480.392","REF_FRAME":"TEME"},{"MEAN_ELEMENT_THEORY":"SGP4","ECCENTRICITY":"0.00018180","OBJECT_ID":"2022-045AH","SITE":"AFETR","OBJECT_TYPE":"PAYLOAD","TIME_SYSTEM":"UTC","OBJECT_NAME":"STARLINK-3848","NORAD_CAT_ID":"52362","ELEMENT_SET_NO":"999","MEAN_MOTION_DDOT":"0.0000000000000","RCS_SIZE":"LARGE","TLE_LINE1":"1 52362U 22045AH  22190.83334491 -.01048203  00000-0 -11379-1 0  9992","FILE":"3510681","MEAN_ANOMALY":"168.7242","MEAN_MOTION":"15.65626891","COUNTRY_CODE":"US","SEMIMAJOR_AXIS":"6749.573","LAUNCH_DATE":"2022-04-29","MEAN_MOTION_DOT":"-0.01048203","CLASSIFICATION_TYPE":"U","RA_OF_ASC_NODE":"85.1976","BSTAR":"-0.01137900000000","DECAY_DATE":null,"PERIAPSIS":"370.211","REV_AT_EPOCH":"130","CENTER_NAME":"EARTH","APOAPSIS":"372.666","REF_FRAME":"TEME","INCLINATION":"53.2174","TLE_LINE2":"2 52362  53.2174  85.1976 0001818  34.6662 168.7242 15.65626891  1306","EPOCH":"2022-07-09T20:00:01.000224","EPHEMERIS_TYPE":"0","PERIOD":"91.976","ARG_OF_PERICENTER":"34.6662","GP_ID":"207787219"},{"INCLINATION":"53.2176","TLE_LINE2":"2 52363  53.2176  90.3134 0001518  50.5338 247.9310 15.29037062  1309","EPOCH":"2022-07-09T20:00:01.000224","PERIOD":"94.177","EPHEMERIS_TYPE":"0","ARG_OF_PERICENTER":"50.5338","GP_ID":"207787017","PERIAPSIS":"477.651","REV_AT_EPOCH":"130","CENTER_NAME":"EARTH","REF_FRAME":"TEME","APOAPSIS":"479.732","RA_OF_ASC_NODE":"90.3134","BSTAR":"-0.02715000000000","DECAY_DATE":null,"LAUNCH_DATE":"2022-04-29","SEMIMAJOR_AXIS":"6856.827","MEAN_MOTION_DOT":"-0.00715772","CLASSIFICATION_TYPE":"U","MEAN_MOTION_DDOT":"0.0000000000000","RCS_SIZE":"LARGE","TLE_LINE1":"1 52363U 22045AJ  22190.83334491 -.00715772  00000-0 -27150-1 0  9998","FILE":"3510681","MEAN_ANOMALY":"247.9310","COUNTRY_CODE":"US","MEAN_MOTION":"15.29037062","NORAD_CAT_ID":"52363","ELEMENT_SET_NO":"999","SITE":"AFETR","OBJECT_ID":"2022-045AJ","OBJECT_TYPE":"PAYLOAD","TIME_SYSTEM":"UTC","OBJECT_NAME":"STARLINK-3830","MEAN_ELEMENT_THEORY":"SGP4","ECCENTRICITY":"0.00015180"},{"GP_ID":"207786957","ARG_OF_PERICENTER":"59.2905","PERIOD":"91.975","EPHEMERIS_TYPE":"0","INCLINATION":"53.2175","TLE_LINE2":"2 52364  53.2175  85.2038 0001363  59.2905 145.4520 15.65640618  1301","EPOCH":"2022-07-09T20:00:01.000224","REF_FRAME":"TEME","APOAPSIS":"372.319","REV_AT_EPOCH":"130","CENTER_NAME":"EARTH","PERIAPSIS":"370.479","DECAY_DATE":null,"BSTAR":"-0.01137300000000","RA_OF_ASC_NODE":"85.2038","CLASSIFICATION_TYPE":"U","MEAN_MOTION_DOT":"-0.01048063","LAUNCH_DATE":"2022-04-29","SEMIMAJOR_AXIS":"6749.534","MEAN_MOTION":"15.65640618","COUNTRY_CODE":"US","FILE":"3510681","MEAN_ANOMALY":"145.4520","TLE_LINE1":"1 52364U 22045AK  22190.83334491 -.01048063  00000-0 -11373-1 0  9992","MEAN_MOTION_DDOT":"0.0000000000000","RCS_SIZE":"LARGE","ELEMENT_SET_NO":"999","NORAD_CAT_ID":"52364","OBJECT_NAME":"STARLINK-3820","OBJECT_TYPE":"PAYLOAD","TIME_SYSTEM":"UTC","SITE":"AFETR","OBJECT_ID":"2022-045AK","ECCENTRICITY":"0.00013630","MEAN_ELEMENT_THEORY":"SGP4"},{"SEMIMAJOR_AXIS":"6749.614","LAUNCH_DATE":"2022-04-29","MEAN_MOTION_DOT":"-0.01048018","CLASSIFICATION_TYPE":"U","RA_OF_ASC_NODE":"85.1903","BSTAR":"-0.01138500000000","DECAY_DATE":null,"PERIAPSIS":"370.532","CENTER_NAME":"EARTH","REV_AT_EPOCH":"130","APOAPSIS":"372.425","REF_FRAME":"TEME","EPOCH":"2022-07-09T20:00:01.000224","INCLINATION":"53.2174","TLE_LINE2":"2 52365  53.2174  85.1903 0001403  55.5437 146.4946 15.65612949  1304","EPHEMERIS_TYPE":"0","PERIOD":"91.977","ARG_OF_PERICENTER":"55.5437","GP_ID":"207786756","MEAN_ELEMENT_THEORY":"SGP4","ECCENTRICITY":"0.00014030","SITE":"AFETR","OBJECT_ID":"2022-045AL","TIME_SYSTEM":"UTC","OBJECT_TYPE":"PAYLOAD","OBJECT_NAME":"STARLINK-3874","NORAD_CAT_ID":"52365","ELEMENT_SET_NO":"999","RCS_SIZE":"LARGE","MEAN_MOTION_DDOT":"0.0000000000000","TLE_LINE1":"1 52365U 22045AL  22190.83334491 -.01048018  00000-0 -11385-1 0  9996","MEAN_ANOMALY":"146.4946","FILE":"3510681","COUNTRY_CODE":"US","MEAN_MOTION":"15.65612949"}];
